[{"OBJECT_NAME":"ONEWEB-0580","OBJECT_ID":"2022-166G","EPOCH":"2026-06-17T18:29:24.465984","MEAN_MOTION":13.21827539,"ECCENTRICITY":0.0002251,"INCLINATION":87.9253,"RA_OF_ASC_NODE":243.8655,"ARG_OF_PERICENTER":88.7353,"MEAN_ANOMALY":271.4039,"EPHEMERIS_TYPE":0,"CLASSIFICATION_TYPE":"U","NORAD_CAT_ID":54648,"ELEMENT_SET_NO":999,"REV_AT_EPOCH":17162,"BSTAR":0.00015083,"MEAN_MOTION_DOT":7.5e-07,"MEAN_MOTION_DDOT":0.0},{"OBJECT_NAME":"ONEWEB-0582","OBJECT_ID":"2022-166H","EPOCH":"2026-06-18T04:35:00.138048","MEAN_MOTION":13.21826613,"ECCENTRICITY":0.0002123,"INCLINATION":87.9253,"RA_OF_ASC_NODE":243.7743,"ARG_OF_PERICENTER":86.5235,"MEAN_ANOMALY":273.6142,"EPHEMERIS_TYPE":0,"CLASSIFICATION_TYPE":"U","NORAD_CAT_ID":54649,"ELEMENT_SET_NO":999,"REV_AT_EPOCH":17165,"BSTAR":1.1577000000000001e-05,"MEAN_MOTION_DOT":1.8e-07,"MEAN_MOTION_DDOT":0.0},{"OBJECT_NAME":"ONEWEB-0583","OBJECT_ID":"2022-166J","EPOCH":"2026-06-18T04:51:56.496672","MEAN_MOTION":13.21827342,"ECCENTRICITY":0.0002055,"INCLINATION":87.9253,"RA_OF_ASC_NODE":243.7954,"ARG_OF_PERICENTER":95.0984,"MEAN_ANOMALY":265.0384,"EPHEMERIS_TYPE":0,"CLASSIFICATION_TYPE":"U","NORAD_CAT_ID":54650,"ELEMENT_SET_NO":999,"REV_AT_EPOCH":17166,"BSTAR":-0.00011216,"MEAN_MOTION_DOT":-3.3e-07,"MEAN_MOTION_DDOT":0.0},{"OBJECT_NAME":"ONEWEB-0584","OBJECT_ID":"2022-166K","EPOCH":"2026-06-17T18:27:00.042336","MEAN_MOTION":13.21825518,"ECCENTRICITY":0.0002114,"INCLINATION":87.925,"RA_OF_ASC_NODE":243.8671,"ARG_OF_PERICENTER":95.7826,"MEAN_ANOMALY":264.3549,"EPHEMERIS_TYPE":0,"CLASSIFICATION_TYPE":"U","NORAD_CAT_ID":54651,"ELEMENT_SET_NO":999,"REV_AT_EPOCH":17159,"BSTAR":0.00011649,"MEAN_MOTION_DOT":6.1e-07,"MEAN_MOTION_DDOT":0.0},{"OBJECT_NAME":"ONEWEB-0585","OBJECT_ID":"2022-166L","EPOCH":"2026-06-17T17:11:55.302720","MEAN_MOTION":13.21826824,"ECCENTRICITY":0.0001991,"INCLINATION":87.9256,"RA_OF_ASC_NODE":243.8648,"ARG_OF_PERICENTER":103.3003,"MEAN_ANOMALY":256.8353,"EPHEMERIS_TYPE":0,"CLASSIFICATION_TYPE":"U","NORAD_CAT_ID":54652,"ELEMENT_SET_NO":999,"REV_AT_EPOCH":17159,"BSTAR":-0.00011552,"MEAN_MOTION_DOT":-3.5e-07,"MEAN_MOTION_DDOT":0.0},{"OBJECT_NAME":"ONEWEB-0586","OBJECT_ID":"2022-166M","EPOCH":"2026-06-18T04:25:17.976576","MEAN_MOTION":13.21824172,"ECCENTRICITY":0.0001964,"INCLINATION":87.9255,"RA_OF_ASC_NODE":243.7971,"ARG_OF_PERICENTER":93.4532,"MEAN_ANOMALY":266.6826,"EPHEMERIS_TYPE":0,"CLASSIFICATION_TYPE":"U","NORAD_CAT_ID":54653,"ELEMENT_SET_NO":999,"REV_AT_EPOCH":17165,"BSTAR":-3.3244e-05,"MEAN_MOTION_DOT":-1e-08,"MEAN_MOTION_DDOT":0.0},{"OBJECT_NAME":"ONEWEB-0587","OBJECT_ID":"2022-166N","EPOCH":"2026-06-18T04:39:49.935744","MEAN_MOTION":13.21824411,"ECCENTRICITY":0.0002054,"INCLINATION":87.9265,"RA_OF_ASC_NODE":243.7686,"ARG_OF_PERICENTER":108.7446,"MEAN_ANOMALY":251.3911,"EPHEMERIS_TYPE":0,"CLASSIFICATION_TYPE":"U","NORAD_CAT_ID":54654,"ELEMENT_SET_NO":999,"REV_AT_EPOCH":17181,"BSTAR":2.8287000000000002e-05,"MEAN_MOTION_DOT":2.5e-07,"MEAN_MOTION_DDOT":0.0},{"OBJECT_NAME":"ONEWEB-0589","OBJECT_ID":"2022-166P","EPOCH":"2026-06-17T17:26:26.323584","MEAN_MOTION":13.21824482,"ECCENTRICITY":0.0002372,"INCLINATION":87.9251,"RA_OF_ASC_NODE":243.8739,"ARG_OF_PERICENTER":77.8314,"MEAN_ANOMALY":282.3085,"EPHEMERIS_TYPE":0,"CLASSIFICATION_TYPE":"U","NORAD_CAT_ID":54655,"ELEMENT_SET_NO":999,"REV_AT_EPOCH":17161,"BSTAR":3.4554e-05,"MEAN_MOTION_DOT":2.7e-07,"MEAN_MOTION_DDOT":0.0},{"OBJECT_NAME":"ONEWEB-0590","OBJECT_ID":"2022-166Q","EPOCH":"2026-06-18T04:56:35.922048","MEAN_MOTION":13.21827185,"ECCENTRICITY":0.0002506,"INCLINATION":87.9262,"RA_OF_ASC_NODE":243.7687,"ARG_OF_PERICENTER":99.2893,"MEAN_ANOMALY":260.8524,"EPHEMERIS_TYPE":0,"CLASSIFICATION_TYPE":"U","NORAD_CAT_ID":54656,"ELEMENT_SET_NO":999,"REV_AT_EPOCH":17166,"BSTAR":9.732800000000001e-05,"MEAN_MOTION_DOT":5.3e-07,"MEAN_MOTION_DDOT":0.0},{"OBJECT_NAME":"ONEWEB-0591","OBJECT_ID":"2022-166R","EPOCH":"2026-06-18T03:24:45.817344","MEAN_MOTION":13.21826751,"ECCENTRICITY":0.0002131,"INCLINATION":87.9251,"RA_OF_ASC_NODE":243.7962,"ARG_OF_PERICENTER":98.2544,"MEAN_ANOMALY":261.8832,"EPHEMERIS_TYPE":0,"CLASSIFICATION_TYPE":"U","NORAD_CAT_ID":54657,"ELEMENT_SET_NO":999,"REV_AT_EPOCH":17168,"BSTAR":0.00022525,"MEAN_MOTION_DOT":1.06e-06,"MEAN_MOTION_DDOT":0.0},{"OBJECT_NAME":"ONEWEB-0592","OBJECT_ID":"2022-166S","EPOCH":"2026-06-17T18:24:34.193952","MEAN_MOTION":13.2183947,"ECCENTRICITY":0.0002144,"INCLINATION":87.9261,"RA_OF_ASC_NODE":243.849,"ARG_OF_PERICENTER":100.9289,"MEAN_ANOMALY":259.2086,"EPHEMERIS_TYPE":0,"CLASSIFICATION_TYPE":"U","NORAD_CAT_ID":54658,"ELEMENT_SET_NO":999,"REV_AT_EPOCH":17151,"BSTAR":-0.0057426,"MEAN_MOTION_DOT":-2.359e-05,"MEAN_MOTION_DDOT":0.0},{"OBJECT_NAME":"ONEWEB-0593","OBJECT_ID":"2022-166T","EPOCH":"2026-06-17T17:07:03.176544","MEAN_MOTION":13.21824657,"ECCENTRICITY":0.0001922,"INCLINATION":87.9256,"RA_OF_ASC_NODE":243.8713,"ARG_OF_PERICENTER":95.0391,"MEAN_ANOMALY":265.0962,"EPHEMERIS_TYPE":0,"CLASSIFICATION_TYPE":"U","NORAD_CAT_ID":54659,"ELEMENT_SET_NO":999,"REV_AT_EPOCH":17161,"BSTAR":7.4583e-05,"MEAN_MOTION_DOT":4.4e-07,"MEAN_MOTION_DDOT":0.0},{"OBJECT_NAME":"ONEWEB-0594","OBJECT_ID":"2022-166U","EPOCH":"2026-06-17T17:36:08.406432","MEAN_MOTION":13.21827742,"ECCENTRICITY":0.0001924,"INCLINATION":87.9252,"RA_OF_ASC_NODE":243.8836,"ARG_OF_PERICENTER":102.9221,"MEAN_ANOMALY":257.2128,"EPHEMERIS_TYPE":0,"CLASSIFICATION_TYPE":"U","NORAD_CAT_ID":54660,"ELEMENT_SET_NO":999,"REV_AT_EPOCH":17163,"BSTAR":-9.5824e-05,"MEAN_MOTION_DOT":-2.7e-07,"MEAN_MOTION_DDOT":0.0},{"OBJECT_NAME":"ONEWEB-0595","OBJECT_ID":"2022-166V","EPOCH":"2026-06-17T15:13:12.522144","MEAN_MOTION":13.21827524,"ECCENTRICITY":0.0002136,"INCLINATION":87.9261,"RA_OF_ASC_NODE":243.8839,"ARG_OF_PERICENTER":105.4608,"MEAN_ANOMALY":254.6762,"EPHEMERIS_TYPE":0,"CLASSIFICATION_TYPE":"U","NORAD_CAT_ID":54661,"ELEMENT_SET_NO":999,"REV_AT_EPOCH":17159,"BSTAR":1.7103e-05,"MEAN_MOTION_DOT":2e-07,"MEAN_MOTION_DDOT":0.0},{"OBJECT_NAME":"ONEWEB-0596","OBJECT_ID":"2022-166W","EPOCH":"2026-06-18T05:08:54.788928","MEAN_MOTION":13.2182693,"ECCENTRICITY":0.0002087,"INCLINATION":87.9254,"RA_OF_ASC_NODE":243.7798,"ARG_OF_PERICENTER":101.3901,"MEAN_ANOMALY":258.7468,"EPHEMERIS_TYPE":0,"CLASSIFICATION_TYPE":"U","NORAD_CAT_ID":54662,"ELEMENT_SET_NO":999,"REV_AT_EPOCH":17167,"BSTAR":0.0001971,"MEAN_MOTION_DOT":9.4e-07,"MEAN_MOTION_DDOT":0.0},{"OBJECT_NAME":"ONEWEB-0597","OBJECT_ID":"2022-166X","EPOCH":"2026-06-18T04:42:16.047648","MEAN_MOTION":13.21826679,"ECCENTRICITY":0.0001993,"INCLINATION":87.9253,"RA_OF_ASC_NODE":243.7867,"ARG_OF_PERICENTER":94.9553,"MEAN_ANOMALY":265.1808,"EPHEMERIS_TYPE":0,"CLASSIFICATION_TYPE":"U","NORAD_CAT_ID":54663,"ELEMENT_SET_NO":999,"REV_AT_EPOCH":17167,"BSTAR":-1.4697e-05,"MEAN_MOTION_DOT":7e-08,"MEAN_MOTION_DDOT":0.0}]